STARLINK-3751           
1 52289U 22041AE  26068.31540967  .00000444  00000+0  46010-4 0  9998
2 52289  53.2163 100.8007 0001157  87.7054 272.4071 15.08830974214442
STARLINK-5895           
1 55964U 23037BC  26068.93316413  .00010921  00000+0  72850-3 0  9993
2 55964  69.9972 260.0280 0004986 264.4993  95.5602 15.07243555164606
