[{"OBJECT_NAME":"STARLINK-3751","OBJECT_ID":"2022-041AE","EPOCH":"2026-03-09T07:34:11.395488","MEAN_MOTION":15.08830974,"ECCENTRICITY":0.00011576,"INCLINATION":53.2163,"RA_OF_ASC_NODE":100.8007,"ARG_OF_PERICENTER":87.7054,"MEAN_ANOMALY":272.4071,"EPHEMERIS_TYPE":0,"CLASSIFICATION_TYPE":"U","NORAD_CAT_ID":52289,"ELEMENT_SET_NO":999,"REV_AT_EPOCH":21444,"BSTAR":4.601013e-5,"MEAN_MOTION_DOT":4.44e-6,"MEAN_MOTION_DDOT":0},{"OBJECT_NAME":"STARLINK-5895","OBJECT_ID":"2023-037BC","EPOCH":"2026-03-09T22:23:45.381696","MEAN_MOTION":15.07243555,"ECCENTRICITY":0.00049855,"INCLINATION":69.9972,"RA_OF_ASC_NODE":260.028,"ARG_OF_PERICENTER":264.4993,"MEAN_ANOMALY":95.5602,"EPHEMERIS_TYPE":0,"CLASSIFICATION_TYPE":"U","NORAD_CAT_ID":55964,"ELEMENT_SET_NO":999,"REV_AT_EPOCH":16460,"BSTAR":0.00072849946,"MEAN_MOTION_DOT":0.00010921,"MEAN_MOTION_DDOT":0}]
